{"type": "FeatureCollection", "features": [ {"type": "Feature", "properties": {"norad_id": 36402, "name": "COSMOS 2460 (732)", "group": "gnss", "lat": -9.571251068949282, "lon": 144.9413257708684, "alt_km": 19131.082375055426, "timestamp": "2025-12-19T04:59:48.547661+00:00", "meta": {"OBJECT_NAME": "COSMOS 2460 (732)", "OBJECT_ID": "2010-007C", "EPOCH": "2025-12-18T23:03:28.519200", "MEAN_MOTION": 2.13106274, "ECCENTRICITY": 0.00025695, "INCLINATION": 65.526, "RA_OF_ASC_NODE": 320.5627, "ARG_OF_PERICENTER": 278.231, "MEAN_ANOMALY": 82.4152, "EPHEMERIS_TYPE": 0, "CLASSIFICATION_TYPE": "U", "NORAD_CAT_ID": 36402, "ELEMENT_SET_NO": 999, "REV_AT_EPOCH": 12289, "BSTAR": 0, "MEAN_MOTION_DOT": -6e-07, "MEAN_MOTION_DDOT": 0}, "tle": {"line1": "1 36402U 10007C   25352.96074675 -.00000060  00000+0  00000+0 0  9999", "line2": "2 36402  65.5260 320.5627 0002569 278.2310  82.4152  2.13106274122891"}}, "geometry": {"type": "Point", "coordinates": [144.9413257708684, -9.571251068949282]}}, {"type": "Feature", "properties": {"norad_id": 36585, "name": "GPS BIIF-1  (PRN 25)", "group": "gnss", "lat": 3.6137164458827713, "lon": 33.223912178074464, "alt_km": 20296.213311496784, "timestamp": "2025-12-19T04:59:48.547673+00:00", "meta": {"OBJECT_NAME": "GPS BIIF-1  (PRN 25)", "OBJECT_ID": "2010-022A", "EPOCH": "2025-12-18T07:00:57.218688", "MEAN_MOTION": 2.00553566, "ECCENTRICITY": 0.01263334, "INCLINATION": 54.2992, "RA_OF_ASC_NODE": 215.8499, "ARG_OF_PERICENTER": 65.1411, "MEAN_ANOMALY": 167.812, "EPHEMERIS_TYPE": 0, "CLASSIFICATION_TYPE": "U", "NORAD_CAT_ID": 36585, "ELEMENT_SET_NO": 999, "REV_AT_EPOCH": 11396, "BSTAR": 0, "MEAN_MOTION_DOT": 8.3e-07, "MEAN_MOTION_DDOT": 0}, "tle": {"line1": "1 36585U 10022A   25352.29232892  .00000083  00000+0  00000+0 0  9995", "line2": "2 36585  54.2992 215.8499 0126333  65.1411 167.8120  2.00553566113961"}}, "geometry": {"type": "Point", "coordinates": [33.223912178074464, 3.6137164458827713]}}, {"type": "Feature", "properties": {"norad_id": 36828, "name": "BEIDOU-2 IGSO-1 (C06)", "group": "gnss", "lat": 51.30765276920878, "lon": -79.54463625678814, "alt_km": 35853.22079629613, "timestamp": "2025-12-19T04:59:48.547685+00:00", "meta": {"OBJECT_NAME": "BEIDOU-2 IGSO-1 (C06)", "OBJECT_ID": "2010-036A", "EPOCH": "2025-12-14T21:38:21.623424", "MEAN_MOTION": 1.00275796, "ECCENTRICITY": 0.00512569, "INCLINATION": 54.2866, "RA_OF_ASC_NODE": 164.6279, "ARG_OF_PERICENTER": 215.8888, "MEAN_ANOMALY": 135.7931, "EPHEMERIS_TYPE": 0, "CLASSIFICATION_TYPE": "U", "NORAD_CAT_ID": 36828, "ELEMENT_SET_NO": 999, "REV_AT_EPOCH": 5624, "BSTAR": 0, "MEAN_MOTION_DOT": -2.4e-07, "MEAN_MOTION_DDOT": 0}, "tle": {"line1": "1 36828U 10036A   25348.90163916 -.00000024  00000+0  00000+0 0  9999", "line2": "2 36828  54.2866 164.6279 0051256 215.8888 135.7931  1.00275796 56247"}}, "geometry": {"type": "Point", "coordinates": [-79.54463625678814, 51.30765276920878]}}, {"type": "Feature", "properties": {"norad_id": 37210, "name": "BEIDOU-2 G4 (C04)", "group": "gnss", "lat": -3.0791856554028407, "lon": -36.83146973392545, "alt_km": 35764.7543623257, "timestamp": "2025-12-19T04:59:48.547698+00:00", "meta": {"OBJECT_NAME": "BEIDOU-2 G4 (C04)", "OBJECT_ID": "2010-057A", "EPOCH": "2025-12-18T19:11:33.420768", "MEAN_MOTION": 1.00272049, "ECCENTRICITY": 0.00104469, "INCLINATION": 3.1991, "RA_OF_ASC_NODE": 69.9164, "ARG_OF_PERICENTER": 192.4779, "MEAN_ANOMALY": 273.2335, "EPHEMERIS_TYPE": 0, "CLASSIFICATION_TYPE": "U", "NORAD_CAT_ID": 37210, "ELEMENT_SET_NO": 999, "REV_AT_EPOCH": 5548, "BSTAR": 0, "MEAN_MOTION_DOT": -8.9e-07, "MEAN_MOTION_DDOT": 0}, "tle": {"line1": "1 37210U 10057A   25352.79969237 -.00000089  00000+0  00000+0 0  9991", "line2": "2 37210   3.1991  69.9164 0010446 192.4779 273.2335  1.00272049 55489"}}, "geometry": {"type": "Point", "coordinates": [-36.83146973392545, -3.0791856554028407]}}, {"type": "Feature", "properties": {"norad_id": 37256, "name": "BEIDOU-2 IGSO-2 (C07)", "group": "gnss", "lat": -2.131334505663712, "lon": -87.87623060400864, "alt_km": 35941.13672556032, "timestamp": "2025-12-19T04:59:48.547710+00:00", "meta": {"OBJECT_NAME": "BEIDOU-2 IGSO-2 (C07)", "OBJECT_ID": "2010-068A", "EPOCH": "2025-12-18T17:13:56.551296", "MEAN_MOTION": 1.00284788, "ECCENTRICITY": 0.00483763, "INCLINATION": 47.875, "RA_OF_ASC_NODE": 274.0752, "ARG_OF_PERICENTER": 216.347, "MEAN_ANOMALY": 323.4971, "EPHEMERIS_TYPE": 0, "CLASSIFICATION_TYPE": "U", "NORAD_CAT_ID": 37256, "ELEMENT_SET_NO": 999, "REV_AT_EPOCH": 5498, "BSTAR": 0, "MEAN_MOTION_DOT": -2e-06, "MEAN_MOTION_DDOT": 0}, "tle": {"line1": "1 37256U 10068A   25352.71801564 -.00000200  00000+0  00000+0 0  9998", "line2": "2 37256  47.8750 274.0752 0048376 216.3470 323.4971  1.00284788 54987"}}, "geometry": {"type": "Point", "coordinates": [-87.87623060400864, -2.131334505663712]}}, {"type": "Feature", "properties": {"norad_id": 37384, "name": "BEIDOU-2 IGSO-3 (C08)", "group": "gnss", "lat": -41.67119957801927, "lon": -110.07085252001585, "alt_km": 35678.89645079465, "timestamp": "2025-12-19T04:59:48.547722+00:00", "meta": {"OBJECT_NAME": "BEIDOU-2 IGSO-3 (C08)", "OBJECT_ID": "2011-013A", "EPOCH": "2025-12-18T16:17:49.029216", "MEAN_MOTION": 1.00269421, "ECCENTRICITY": 0.00353461, "INCLINATION": 62.1512, "RA_OF_ASC_NODE": 41.8596, "ARG_OF_PERICENTER": 187.8899, "MEAN_ANOMALY": 209.6604, "EPHEMERIS_TYPE": 0, "CLASSIFICATION_TYPE": "U", "NORAD_CAT_ID": 37384, "ELEMENT_SET_NO": 999, "REV_AT_EPOCH": 5385, "BSTAR": 0, "MEAN_MOTION_DOT": -1.73e-06, "MEAN_MOTION_DDOT": 0}, "tle": {"line1": "1 37384U 11013A   25352.67903969 -.00000173  00000+0  00000+0 0  9997", "line2": "2 37384  62.1512  41.8596 0035346 187.8899 209.6604  1.00269421 53851"}}, "geometry": {"type": "Point", "coordinates": [-110.07085252001585, -41.67119957801927]}}, {"type": "Feature", "properties": {"norad_id": 37605, "name": "GSAT-8 (GAGAN/PRN 127)", "group": "gnss", "lat": 1.1808663530536512, "lon": -141.98000974079562, "alt_km": 35763.05979293689, "timestamp": "2025-12-19T04:59:48.547734+00:00", "meta": {"OBJECT_NAME": "GSAT-8 (GAGAN/PRN 127)", "OBJECT_ID": "2011-022A", "EPOCH": "2025-12-18T22:20:38.925312", "MEAN_MOTION": 1.00270538, "ECCENTRICITY": 0.00087449, "INCLINATION": 1.6649, "RA_OF_ASC_NODE": 84.1308, "ARG_OF_PERICENTER": 185.2174, "MEAN_ANOMALY": 208.684, "EPHEMERIS_TYPE": 0, "CLASSIFICATION_TYPE": "U", "NORAD_CAT_ID": 37605, "ELEMENT_SET_NO": 999, "REV_AT_EPOCH": 5141, "BSTAR": 0, "MEAN_MOTION_DOT": 1.08e-06, "MEAN_MOTION_DDOT": 0}, "tle": {"line1": "1 37605U 11022A   25352.93100608  .00000108  00000+0  00000+0 0  9998", "line2": "2 37605   1.6649  84.1308 0008744 185.2174 208.6840  1.00270538 51419"}}, "geometry": {"type": "Point", "coordinates": [-141.98000974079562, 1.1808663530536512]}}, {"type": "Feature", "properties": {"norad_id": 37763, "name": "BEIDOU-2 IGSO-4 (C09)", "group": "gnss", "lat": 54.5112600707233, "lon": -104.0263205527715, "alt_km": 36263.583544660534, "timestamp": "2025-12-19T04:59:48.547746+00:00", "meta": {"OBJECT_NAME": "BEIDOU-2 IGSO-4 (C09)", "OBJECT_ID": "2011-038A", "EPOCH": "2025-12-17T23:29:21.564384", "MEAN_MOTION": 1.00281312, "ECCENTRICITY": 0.01493143, "INCLINATION": 54.5836, "RA_OF_ASC_NODE": 167.2999, "ARG_OF_PERICENTER": 230.2426, "MEAN_ANOMALY": 136.1954, "EPHEMERIS_TYPE": 0, "CLASSIFICATION_TYPE": "U", "NORAD_CAT_ID": 37763, "ELEMENT_SET_NO": 999, "REV_AT_EPOCH": 5283, "BSTAR": 0, "MEAN_MOTION_DOT": 6.5e-07, "MEAN_MOTION_DDOT": 0}, "tle": {"line1": "1 37763U 11038A   25351.97872181  .00000065  00000+0  00000+0 0  9997", "line2": "2 37763  54.5836 167.2999 0149314 230.2426 136.1954  1.00281312 52838"}}, "geometry": {"type": "Point", "coordinates": [-104.0263205527715, 54.5112600707233]}}, {"type": "Feature", "properties": {"norad_id": 37846, "name": "GSAT0101 (GALILEO-PFM)", "group": "gnss", "lat": -57.01855404646172, "lon": -101.68861035770746, "alt_km": 23221.72061133825, "timestamp": "2025-12-19T04:59:48.547759+00:00", "meta": {"OBJECT_NAME": "GSAT0101 (GALILEO-PFM)", "OBJECT_ID": "2011-060A", "EPOCH": "2025-12-18T04:19:25.193280", "MEAN_MOTION": 1.70475831, "ECCENTRICITY": 0.00031642, "INCLINATION": 57.0516, "RA_OF_ASC_NODE": 346.6723, "ARG_OF_PERICENTER": 318.7092, "MEAN_ANOMALY": 41.2814, "EPHEMERIS_TYPE": 0, "CLASSIFICATION_TYPE": "U", "NORAD_CAT_ID": 37846, "ELEMENT_SET_NO": 999, "REV_AT_EPOCH": 8803, "BSTAR": 0, "MEAN_MOTION_DOT": -7.6e-07, "MEAN_MOTION_DDOT": 0}, "tle": {"line1": "1 37846U 11060A   25352.18015270 -.00000076  00000+0  00000+0 0  9999", "line2": "2 37846  57.0516 346.6723 0003164 318.7092  41.2814  1.70475831 88034"}}, "geometry": {"type": "Point", "coordinates": [-101.68861035770746, -57.01855404646172]}}, {"type": "Feature", "properties": {"norad_id": 37847, "name": "GSAT0102 (GALILEO-FM2)", "group": "gnss", "lat": -35.3525762437563, "lon": -40.75964765695566, "alt_km": 23211.280930759207, "timestamp": "2025-12-19T04:59:48.547771+00:00", "meta": {"OBJECT_NAME": "GSAT0102 (GALILEO-FM2)", "OBJECT_ID": "2011-060B", "EPOCH": "2025-12-18T09:18:10.933920", "MEAN_MOTION": 1.7047603, "ECCENTRICITY": 0.0005099, "INCLINATION": 57.0522, "RA_OF_ASC_NODE": 346.6671, "ARG_OF_PERICENTER": 311.9548, "MEAN_ANOMALY": 220.8374, "EPHEMERIS_TYPE": 0, "CLASSIFICATION_TYPE": "U", "NORAD_CAT_ID": 37847, "ELEMENT_SET_NO": 999, "REV_AT_EPOCH": 8804, "BSTAR": 0, "MEAN_MOTION_DOT": -7.6e-07, "MEAN_MOTION_DDOT": 0}, "tle": {"line1": "1 37847U 11060B   25352.38762655 -.00000076  00000+0  00000+0 0  9998", "line2": "2 37847  57.0522 346.6671 0005099 311.9548 220.8374  1.70476030 88043"}}, "geometry": {"type": "Point", "coordinates": [-40.75964765695566, -35.3525762437563]}}]}